GLOBALSTAR M068         
1 32266U 07048D   25078.88871492 -.00000053  00000+0  28337-3 0  9991
2 32266  51.9876 214.4672 0000179 330.1688 172.9758 12.62817496806277
GLOBALSTAR M079         
1 37188U 10054A   25079.09893058 -.00000100  00000+0  19619-4 0  9993
2 37188  52.0047  50.9827 0000674  84.6381 354.7082 12.62271738665886
GLOBALSTAR M074         
1 37189U 10054B   25079.13109006 -.00000104  00000+0 -34984-5 0  9990
2 37189  52.0025  50.2225 0000321 104.4847 359.8505 12.62267231665884
GLOBALSTAR M076         
1 37190U 10054C   25078.37815900 -.00000092  00000+0  64108-4 0  9999
2 37190  52.0037  52.6721 0000592 108.7189  55.8139 12.62259600665430
GLOBALSTAR M077         
1 37191U 10054D   25078.90049655 -.00000079  00000+0  13562-3 0  9997
2 37191  52.0101   7.9194 0000566  77.3385 359.2122 12.62271697665871
GLOBALSTAR M075         
1 37192U 10054E   25079.07618723 -.00000109  00000+0 -28523-4 0  9994
2 37192  51.9932  92.8574 0000343 107.8307 289.0957 12.62262581665129
GLOBALSTAR M073         
1 37193U 10054F   25078.23365478 -.00000085  00000+0  10721-3 0  9990
2 37193  52.0091   9.1765 0000653  85.1955  79.1051 12.62264201666475
GLOBALSTAR M083         
1 37739U 11033A   25078.86161715 -.00000076  00000+0  15401-3 0  9991
2 37739  51.9873 316.1196 0000858  74.6204   6.0959 12.62260745635935
GLOBALSTAR M088         
1 37740U 11033B   25078.59757333 -.00000082  00000+0  12055-3 0  9999
2 37740  51.9720 222.4863 0000794  98.9530 341.8893 12.62264343631085
GLOBALSTAR M091         
1 37741U 11033C   25078.61624979 -.00000068  00000+0  20001-3 0  9996
2 37741  51.9990 185.8261 0000730  90.6221  14.2870 12.62266011631872
GLOBALSTAR M085         
1 37742U 11033D   25078.61617031 -.00000075  00000+0  16281-3 0  9991
2 37742  51.9851 136.9445 0000539  95.5388  69.0989 12.62266612632872
GLOBALSTAR M081         
1 37743U 11033E   25078.55952531 -.00000073  00000+0  17348-3 0  9995
2 37743  51.9945 139.8483 0000687 108.5864  38.8210 12.62261839632528
GLOBALSTAR M089         
1 37744U 11033F   25078.96418535 -.00000092  00000+0  67971-4 0  9991
2 37744  51.9915  92.8595 0000432 139.7184 227.4090 12.62267566633422
GLOBALSTAR M084         
1 38040U 11080A   25078.83453894 -.00000082  00000+0  12229-3 0  9990
2 38040  52.0024 320.4977 0000636 106.6239 330.9751 12.62263760611386
GLOBALSTAR M080         
1 38041U 11080B   25079.14448109 -.00000068  00000+0  19921-3 0  9999
2 38041  52.0079 321.1313 0000846 116.2205  49.6436 12.62270202611688
GLOBALSTAR M082         
1 38042U 11080C   25078.91620398 -.00000081  00000+0  12711-3 0  9991
2 38042  52.0067 277.2605 0000903  60.5565  88.6516 12.62264274612220
GLOBALSTAR M092         
1 38043U 11080D   25078.25771601 -.00000075  00000+0  16035-3 0  9999
2 38043  52.0113   9.6323 0000405  76.2772  79.9268 12.62273558610598
GLOBALSTAR M090         
1 38044U 11080E   25079.02699199 -.00000082  00000+0  12069-3 0  9998
2 38044  51.9874 270.8468 0000893  79.8885  92.2707 12.62268364612393
GLOBALSTAR M086         
1 38045U 11080F   25079.04693617 -.00000069  00000+0  19241-3 0  9994
2 38045  51.9886 271.3302 0001681 108.8847  34.3624 12.62268334612401
GLOBALSTAR M097         
1 39072U 13005A   25078.64612681 -.00000082  00000+0  12342-3 0  9991
2 39072  52.0038 187.0046 0000864 103.2039 256.8924 12.62270952559509
GLOBALSTAR M093         
1 39073U 13005B   25078.61931704 -.00000071  00000+0  18308-3 0  9995
2 39073  51.9804 180.5298 0000806 104.0151 256.0805 12.62262706559458
GLOBALSTAR M094         
1 39074U 13005C   25079.17386825 -.00000108  00000+0 -25802-4 0  9996
2 39074  51.9942  93.1341 0000625  89.6825 270.4113 12.62269200561153
GLOBALSTAR M096         
1 39075U 13005D   25078.71202796 -.00000071  00000+0  18317-3 0  9990
2 39075  52.0062 142.9878 0000650  91.8856 268.2085 12.62269539559991
GLOBALSTAR M078         
1 39076U 13005E   25078.76421160 -.00000089  00000+0  80529-4 0  9998
2 39076  51.9859 227.4554 0000837  32.9004 327.1915 12.62260265558625
GLOBALSTAR M095         
1 39077U 13005F   25078.71183156 -.00000088  00000+0  89049-4 0  9999
2 39077  51.9787 224.8586 0001001  70.0986 289.9988 12.62267846558478
GLOBALSTAR M087         
1 52888U 22064A   25078.90086454 -.00000090  00000+0  76630-4 0  9998
2 52888  51.9823   5.6872 0000659  63.8611 296.2323 12.62269456133764
